{"type": "FeatureCollection", "features": [ {"type": "Feature", "properties": {"norad_id": 31241, "name": "FENGYUN 1C DEB", "group": "fengyun-1c-debris", "lat": 13.334800371396922, "lon": 144.3885232875767, "alt_km": 795.56083933841, "timestamp": "2025-12-24T20:42:21.308064+00:00", "meta": {"OBJECT_NAME": "FENGYUN 1C DEB", "OBJECT_ID": "1999-025BLX", "EPOCH": "2025-12-23T16:16:05.795040", "MEAN_MOTION": 14.3873549, "ECCENTRICITY": 0.00670939, "INCLINATION": 99.2336, "RA_OF_ASC_NODE": 145.3243, "ARG_OF_PERICENTER": 149.0502, "MEAN_ANOMALY": 211.4664, "EPHEMERIS_TYPE": 0, "CLASSIFICATION_TYPE": "U", "NORAD_CAT_ID": 31241, "ELEMENT_SET_NO": 999, "REV_AT_EPOCH": 97848, "BSTAR": 0.00057939363, "MEAN_MOTION_DOT": 1.776e-05, "MEAN_MOTION_DDOT": 0}, "tle": {"line1": "1 31241U 99025BLX 25357.67784485  .00001776  00000+0  57939-3 0  9993", "line2": "2 31241  99.2336 145.3243 0067093 149.0502 211.4664 14.38735490978487"}}, "geometry": {"type": "Point", "coordinates": [144.3885232875767, 13.334800371396922]}}, {"type": "Feature", "properties": {"norad_id": 31243, "name": "FENGYUN 1C DEB", "group": "fengyun-1c-debris", "lat": 2.488719378347089, "lon": 38.35434334170302, "alt_km": 903.4554389147443, "timestamp": "2025-12-24T20:42:21.308074+00:00", "meta": {"OBJECT_NAME": "FENGYUN 1C DEB", "OBJECT_ID": "1999-025BLZ", "EPOCH": "2025-12-23T13:58:38.376768", "MEAN_MOTION": 14.07196727, "ECCENTRICITY": 0.00662588, "INCLINATION": 98.7491, "RA_OF_ASC_NODE": 37.4986, "ARG_OF_PERICENTER": 138.173, "MEAN_ANOMALY": 222.453, "EPHEMERIS_TYPE": 0, "CLASSIFICATION_TYPE": "U", "NORAD_CAT_ID": 31243, "ELEMENT_SET_NO": 999, "REV_AT_EPOCH": 69460, "BSTAR": 0.00056007275, "MEAN_MOTION_DOT": 9.15e-06, "MEAN_MOTION_DDOT": 0}, "tle": {"line1": "1 31243U 99025BLZ 25357.58238862  .00000915  00000+0  56007-3 0  9997", "line2": "2 31243  98.7491  37.4986 0066258 138.1730 222.4530 14.07196727694607"}}, "geometry": {"type": "Point", "coordinates": [38.35434334170302, 2.488719378347089]}}, {"type": "Feature", "properties": {"norad_id": 31244, "name": "FENGYUN 1C DEB", "group": "fengyun-1c-debris", "lat": -13.894109782114597, "lon": 64.71054970978663, "alt_km": 944.3705115418979, "timestamp": "2025-12-24T20:42:21.308085+00:00", "meta": {"OBJECT_NAME": "FENGYUN 1C DEB", "OBJECT_ID": "1999-025BMA", "EPOCH": "2025-12-22T10:42:55.008864", "MEAN_MOTION": 14.0626394, "ECCENTRICITY": 0.01029519, "INCLINATION": 99.0337, "RA_OF_ASC_NODE": 60.0445, "ARG_OF_PERICENTER": 148.0726, "MEAN_ANOMALY": 212.6736, "EPHEMERIS_TYPE": 0, "CLASSIFICATION_TYPE": "U", "NORAD_CAT_ID": 31244, "ELEMENT_SET_NO": 999, "REV_AT_EPOCH": 57776, "BSTAR": 0.00030551963, "MEAN_MOTION_DOT": 4.84e-06, "MEAN_MOTION_DDOT": 0}, "tle": {"line1": "1 31244U 99025BMA 25356.44647001  .00000484  00000+0  30552-3 0  9999", "line2": "2 31244  99.0337  60.0445 0102951 148.0726 212.6736 14.06263940577766"}}, "geometry": {"type": "Point", "coordinates": [64.71054970978663, -13.894109782114597]}}, {"type": "Feature", "properties": {"norad_id": 31246, "name": "FENGYUN 1C DEB", "group": "fengyun-1c-debris", "lat": -59.377276957784744, "lon": -139.2380889964166, "alt_km": 769.5388564507384, "timestamp": "2025-12-24T20:42:21.308103+00:00", "meta": {"OBJECT_NAME": "FENGYUN 1C DEB", "OBJECT_ID": "1999-025BMC", "EPOCH": "2025-12-12T08:40:07.558176", "MEAN_MOTION": 14.07203108, "ECCENTRICITY": 0.01486979, "INCLINATION": 98.8179, "RA_OF_ASC_NODE": 193.3588, "ARG_OF_PERICENTER": 344.8205, "MEAN_ANOMALY": 14.8526, "EPHEMERIS_TYPE": 0, "CLASSIFICATION_TYPE": "U", "NORAD_CAT_ID": 31246, "ELEMENT_SET_NO": 999, "REV_AT_EPOCH": 61747, "BSTAR": 0.003171684, "MEAN_MOTION_DOT": 5.838e-05, "MEAN_MOTION_DDOT": 0}, "tle": {"line1": "1 31246U 99025BMC 25346.36119859  .00005838  00000+0  31717-2 0  9997", "line2": "2 31246  98.8179 193.3588 0148697 344.8205  14.8526 14.07203108617475"}}, "geometry": {"type": "Point", "coordinates": [-139.2380889964166, -59.377276957784744]}}, {"type": "Feature", "properties": {"norad_id": 31247, "name": "FENGYUN 1C DEB", "group": "fengyun-1c-debris", "lat": -48.66174966773735, "lon": 56.61947336430724, "alt_km": 923.0278407187752, "timestamp": "2025-12-24T20:42:21.308114+00:00", "meta": {"OBJECT_NAME": "FENGYUN 1C DEB", "OBJECT_ID": "1999-025BMD", "EPOCH": "2025-12-19T03:38:56.942880", "MEAN_MOTION": 14.05141398, "ECCENTRICITY": 0.00591155, "INCLINATION": 99.3669, "RA_OF_ASC_NODE": 241.5398, "ARG_OF_PERICENTER": 45.1692, "MEAN_ANOMALY": 112.4499, "EPHEMERIS_TYPE": 0, "CLASSIFICATION_TYPE": "U", "NORAD_CAT_ID": 31247, "ELEMENT_SET_NO": 999, "REV_AT_EPOCH": 95611, "BSTAR": 0.0010015357, "MEAN_MOTION_DOT": 1.595e-05, "MEAN_MOTION_DDOT": 0}, "tle": {"line1": "1 31247U 99025BMD 25353.15204795  .00001595  00000+0  10015-2 0  9991", "line2": "2 31247  99.3669 241.5398 0059115  45.1692 112.4499 14.05141398956119"}}, "geometry": {"type": "Point", "coordinates": [56.61947336430724, -48.66174966773735]}}, {"type": "Feature", "properties": {"norad_id": 31248, "name": "FENGYUN 1C DEB", "group": "fengyun-1c-debris", "lat": -79.2448822660147, "lon": 177.09667286172945, "alt_km": 848.3021578844373, "timestamp": "2025-12-24T20:42:21.308124+00:00", "meta": {"OBJECT_NAME": "FENGYUN 1C DEB", "OBJECT_ID": "1999-025BME", "EPOCH": "2025-12-18T15:54:42.813792", "MEAN_MOTION": 13.92792265, "ECCENTRICITY": 0.01098054, "INCLINATION": 99.2637, "RA_OF_ASC_NODE": 50.1244, "ARG_OF_PERICENTER": 295.1877, "MEAN_ANOMALY": 220.4499, "EPHEMERIS_TYPE": 0, "CLASSIFICATION_TYPE": "U", "NORAD_CAT_ID": 31248, "ELEMENT_SET_NO": 999, "REV_AT_EPOCH": 94906, "BSTAR": 0.00044323631, "MEAN_MOTION_DOT": 5.57e-06, "MEAN_MOTION_DDOT": 0}, "tle": {"line1": "1 31248U 99025BME 25352.66299553  .00000557  00000+0  44324-3 0  9991", "line2": "2 31248  99.2637  50.1244 0109805 295.1877 220.4499 13.92792265949068"}}, "geometry": {"type": "Point", "coordinates": [177.09667286172945, -79.2448822660147]}}, {"type": "Feature", "properties": {"norad_id": 31250, "name": "FENGYUN 1C DEB", "group": "fengyun-1c-debris", "lat": -2.5151895476155555, "lon": 27.58643947892222, "alt_km": 870.1364653326946, "timestamp": "2025-12-24T20:42:21.308134+00:00", "meta": {"OBJECT_NAME": "FENGYUN 1C DEB", "OBJECT_ID": "1999-025BMG", "EPOCH": "2025-12-24T00:59:57.049728", "MEAN_MOTION": 14.03124049, "ECCENTRICITY": 0.01329543, "INCLINATION": 98.3867, "RA_OF_ASC_NODE": 207.2006, "ARG_OF_PERICENTER": 265.9148, "MEAN_ANOMALY": 92.6815, "EPHEMERIS_TYPE": 0, "CLASSIFICATION_TYPE": "U", "NORAD_CAT_ID": 31250, "ELEMENT_SET_NO": 999, "REV_AT_EPOCH": 95676, "BSTAR": 0.0010880463, "MEAN_MOTION_DOT": 1.79e-05, "MEAN_MOTION_DDOT": 0}, "tle": {"line1": "1 31250U 99025BMG 25358.04163252  .00001790  00000+0  10880-2 0  9997", "line2": "2 31250  98.3867 207.2006 0132954 265.9148  92.6815 14.03124049956762"}}, "geometry": {"type": "Point", "coordinates": [27.58643947892222, -2.5151895476155555]}}, {"type": "Feature", "properties": {"norad_id": 31252, "name": "FENGYUN 1C DEB", "group": "fengyun-1c-debris", "lat": 53.99580195039363, "lon": 5.758638693941279, "alt_km": 725.2606927663692, "timestamp": "2025-12-24T20:42:21.308144+00:00", "meta": {"OBJECT_NAME": "FENGYUN 1C DEB", "OBJECT_ID": "1999-025BMJ", "EPOCH": "2025-12-24T07:06:34.390368", "MEAN_MOTION": 14.40202801, "ECCENTRICITY": 0.02142143, "INCLINATION": 98.3164, "RA_OF_ASC_NODE": 16.8205, "ARG_OF_PERICENTER": 137.4794, "MEAN_ANOMALY": 224.3211, "EPHEMERIS_TYPE": 0, "CLASSIFICATION_TYPE": "U", "NORAD_CAT_ID": 31252, "ELEMENT_SET_NO": 999, "REV_AT_EPOCH": 97373, "BSTAR": 0.00029537403, "MEAN_MOTION_DOT": 1.176e-05, "MEAN_MOTION_DDOT": 0}, "tle": {"line1": "1 31252U 99025BMJ 25358.29623137  .00001176  00000+0  29537-3 0  9997", "line2": "2 31252  98.3164  16.8205 0214214 137.4794 224.3211 14.40202801973733"}}, "geometry": {"type": "Point", "coordinates": [5.758638693941279, 53.99580195039363]}}, {"type": "Feature", "properties": {"norad_id": 31253, "name": "FENGYUN 1C DEB", "group": "fengyun-1c-debris", "lat": 14.773661609705792, "lon": 61.46145427474081, "alt_km": 722.9451710667563, "timestamp": "2025-12-24T20:42:21.308154+00:00", "meta": {"OBJECT_NAME": "FENGYUN 1C DEB", "OBJECT_ID": "1999-025BMK", "EPOCH": "2025-12-21T10:31:09.949440", "MEAN_MOTION": 14.03607251, "ECCENTRICITY": 0.02906334, "INCLINATION": 99.0756, "RA_OF_ASC_NODE": 60.4551, "ARG_OF_PERICENTER": 66.7312, "MEAN_ANOMALY": 296.4166, "EPHEMERIS_TYPE": 0, "CLASSIFICATION_TYPE": "U", "NORAD_CAT_ID": 31253, "ELEMENT_SET_NO": 999, "REV_AT_EPOCH": 69120, "BSTAR": 6.5782528e-05, "MEAN_MOTION_DOT": 1.04e-06, "MEAN_MOTION_DDOT": 0}, "tle": {"line1": "1 31253U 99025BMK 25355.43830960  .00000104  00000+0  65783-4 0  9999", "line2": "2 31253  99.0756  60.4551 0290633  66.7312 296.4166 14.03607251691202"}}, "geometry": {"type": "Point", "coordinates": [61.46145427474081, 14.773661609705792]}}, {"type": "Feature", "properties": {"norad_id": 31254, "name": "FENGYUN 1C DEB", "group": "fengyun-1c-debris", "lat": 57.27889644470544, "lon": 34.94929500920908, "alt_km": 796.3556834194642, "timestamp": "2025-12-24T20:42:21.308164+00:00", "meta": {"OBJECT_NAME": "FENGYUN 1C DEB", "OBJECT_ID": "1999-025BML", "EPOCH": "2025-12-20T21:58:05.064096", "MEAN_MOTION": 14.36381036, "ECCENTRICITY": 0.015173, "INCLINATION": 98.4611, "RA_OF_ASC_NODE": 44.4666, "ARG_OF_PERICENTER": 177.7656, "MEAN_ANOMALY": 1.9855, "EPHEMERIS_TYPE": 0, "CLASSIFICATION_TYPE": "U", "NORAD_CAT_ID": 31254, "ELEMENT_SET_NO": 999, "REV_AT_EPOCH": 97633, "BSTAR": 0.00034331, "MEAN_MOTION_DOT": 1.099e-05, "MEAN_MOTION_DDOT": 0}, "tle": {"line1": "1 31254U 99025BML 25354.91533639  .00001099  00000+0  34331-3 0  9993", "line2": "2 31254  98.4611  44.4666 0151730 177.7656   1.9855 14.36381036976333"}}, "geometry": {"type": "Point", "coordinates": [34.94929500920908, 57.27889644470544]}}]}